{"type": "FeatureCollection", "features": [ {"type": "Feature", "properties": {"norad_id": 28659, "name": "DIRECTV 8", "group": "intelsat", "lat": -0.009608570199310657, "lon": -37.639000267557975, "alt_km": 35777.49525192845, "timestamp": "2025-12-17T23:38:06.530310+00:00", "meta": {"OBJECT_NAME": "DIRECTV 8", "OBJECT_ID": "2005-019A", "EPOCH": "2025-12-17T12:07:59.513088", "MEAN_MOTION": 1.00272939, "ECCENTRICITY": 0.00028594, "INCLINATION": 0.018, "RA_OF_ASC_NODE": 329.8872, "ARG_OF_PERICENTER": 305.4838, "MEAN_ANOMALY": 233.9742, "EPHEMERIS_TYPE": 0, "CLASSIFICATION_TYPE": "U", "NORAD_CAT_ID": 28659, "ELEMENT_SET_NO": 999, "REV_AT_EPOCH": 7525, "BSTAR": 0, "MEAN_MOTION_DOT": 2.6e-07, "MEAN_MOTION_DDOT": 0}, "tle": {"line1": "1 28659U 05019A   25351.50554992  .00000026  00000+0  00000+0 0  9996", "line2": "2 28659   0.0180 329.8872 0002859 305.4838 233.9742  1.00272939 75257"}}, "geometry": {"type": "Point", "coordinates": [-37.639000267557975, -0.009608570199310657]}}, {"type": "Feature", "properties": {"norad_id": 28702, "name": "GALAXY 28 (G-28)", "group": "intelsat", "lat": -2.830410029724858, "lon": -7.292103279076007, "alt_km": 35784.68894161538, "timestamp": "2025-12-17T23:38:06.530321+00:00", "meta": {"OBJECT_NAME": "GALAXY 28 (G-28)", "OBJECT_ID": "2005-022A", "EPOCH": "2025-12-17T12:09:22.001760", "MEAN_MOTION": 1.00270797, "ECCENTRICITY": 0.00029037, "INCLINATION": 2.8315, "RA_OF_ASC_NODE": 81.2272, "ARG_OF_PERICENTER": 191.246, "MEAN_ANOMALY": 267.5514, "EPHEMERIS_TYPE": 0, "CLASSIFICATION_TYPE": "U", "NORAD_CAT_ID": 28702, "ELEMENT_SET_NO": 999, "REV_AT_EPOCH": 5015, "BSTAR": 0, "MEAN_MOTION_DOT": -1.65e-06, "MEAN_MOTION_DDOT": 0}, "tle": {"line1": "1 28702U 05022A   25351.50650465 -.00000165  00000+0  00000+0 0  9996", "line2": "2 28702   2.8315  81.2272 0002903 191.2460 267.5514  1.00270797 50153"}}, "geometry": {"type": "Point", "coordinates": [-7.292103279076007, -2.830410029724858]}}, {"type": "Feature", "properties": {"norad_id": 29236, "name": "GALAXY 16 (G-16)", "group": "intelsat", "lat": 0.010766620920092524, "lon": -17.60772830093961, "alt_km": 35784.831685875506, "timestamp": "2025-12-17T23:38:06.530333+00:00", "meta": {"OBJECT_NAME": "GALAXY 16 (G-16)", "OBJECT_ID": "2006-023A", "EPOCH": "2025-12-17T12:57:02.087136", "MEAN_MOTION": 1.00270128, "ECCENTRICITY": 0.00024088, "INCLINATION": 0.0343, "RA_OF_ASC_NODE": 215.9894, "ARG_OF_PERICENTER": 46.1173, "MEAN_ANOMALY": 279.5655, "EPHEMERIS_TYPE": 0, "CLASSIFICATION_TYPE": "U", "NORAD_CAT_ID": 29236, "ELEMENT_SET_NO": 999, "REV_AT_EPOCH": 7115, "BSTAR": 0, "MEAN_MOTION_DOT": -1.02e-06, "MEAN_MOTION_DDOT": 0}, "tle": {"line1": "1 29236U 06023A   25351.53960749 -.00000102  00000+0  00000+0 0  9994", "line2": "2 29236   0.0343 215.9894 0002408  46.1173 279.5655  1.00270128 71152"}}, "geometry": {"type": "Point", "coordinates": [-17.60772830093961, 0.010766620920092524]}}, {"type": "Feature", "properties": {"norad_id": 29494, "name": "DIRECTV 9S", "group": "intelsat", "lat": -1.9068432352144413, "lon": -19.814886770743396, "alt_km": 35781.992107627324, "timestamp": "2025-12-17T23:38:06.530345+00:00", "meta": {"OBJECT_NAME": "DIRECTV 9S", "OBJECT_ID": "2006-043A", "EPOCH": "2025-12-17T12:02:14.487648", "MEAN_MOTION": 1.00271907, "ECCENTRICITY": 0.00028207, "INCLINATION": 1.9519, "RA_OF_ASC_NODE": 83.1628, "ARG_OF_PERICENTER": 188.2674, "MEAN_ANOMALY": 254.2966, "EPHEMERIS_TYPE": 0, "CLASSIFICATION_TYPE": "U", "NORAD_CAT_ID": 29494, "ELEMENT_SET_NO": 999, "REV_AT_EPOCH": 4956, "BSTAR": 0, "MEAN_MOTION_DOT": -9e-07, "MEAN_MOTION_DDOT": 0}, "tle": {"line1": "1 29494U 06043A   25351.50155657 -.00000090  00000+0  00000+0 0  9999", "line2": "2 29494   1.9519  83.1628 0002820 188.2674 254.2966  1.00271907 49566"}}, "geometry": {"type": "Point", "coordinates": [-19.814886770743396, -1.9068432352144413]}}, {"type": "Feature", "properties": {"norad_id": 31307, "name": "GALAXY 17 (G-17)", "group": "intelsat", "lat": -2.5025320309430463, "lon": -3.53448875281488, "alt_km": 35792.79039590806, "timestamp": "2025-12-17T23:38:06.530357+00:00", "meta": {"OBJECT_NAME": "GALAXY 17 (G-17)", "OBJECT_ID": "2007-016B", "EPOCH": "2025-12-17T12:55:17.368608", "MEAN_MOTION": 1.00271938, "ECCENTRICITY": 0.00055172, "INCLINATION": 2.5117, "RA_OF_ASC_NODE": 82.2321, "ARG_OF_PERICENTER": 168.2005, "MEAN_ANOMALY": 304.83, "EPHEMERIS_TYPE": 0, "CLASSIFICATION_TYPE": "U", "NORAD_CAT_ID": 31307, "ELEMENT_SET_NO": 999, "REV_AT_EPOCH": 6798, "BSTAR": 0, "MEAN_MOTION_DOT": -1.84e-06, "MEAN_MOTION_DDOT": 0}, "tle": {"line1": "1 31307U 07016B   25351.53839547 -.00000184  00000+0  00000+0 0  9990", "line2": "2 31307   2.5117  82.2321 0005517 168.2005 304.8300  1.00271938 67989"}}, "geometry": {"type": "Point", "coordinates": [-3.53448875281488, -2.5025320309430463]}}, {"type": "Feature", "properties": {"norad_id": 31862, "name": "DIRECTV 10", "group": "intelsat", "lat": 0.0014232161676866197, "lon": -21.43446169617285, "alt_km": 35787.7423461331, "timestamp": "2025-12-17T23:38:06.530368+00:00", "meta": {"OBJECT_NAME": "DIRECTV 10", "OBJECT_ID": "2007-032A", "EPOCH": "2025-12-17T12:02:07.657728", "MEAN_MOTION": 1.00269431, "ECCENTRICITY": 3.618e-05, "INCLINATION": 0.0158, "RA_OF_ASC_NODE": 172.9029, "ARG_OF_PERICENTER": 34.5248, "MEAN_ANOMALY": 316.679, "EPHEMERIS_TYPE": 0, "CLASSIFICATION_TYPE": "U", "NORAD_CAT_ID": 31862, "ELEMENT_SET_NO": 999, "REV_AT_EPOCH": 4377, "BSTAR": 0, "MEAN_MOTION_DOT": -7.8e-07, "MEAN_MOTION_DDOT": 0}, "tle": {"line1": "1 31862U 07032A   25351.50147752 -.00000078  00000+0  00000+0 0  9993", "line2": "2 31862   0.0158 172.9029 0000361  34.5248 316.6790  1.00269431 43771"}}, "geometry": {"type": "Point", "coordinates": [-21.43446169617285, 0.0014232161676866197]}}, {"type": "Feature", "properties": {"norad_id": 32253, "name": "INTELSAT 11 (IS-11)", "group": "intelsat", "lat": -1.2385341559153977, "lon": -75.997120384482, "alt_km": 36101.90171844389, "timestamp": "2025-12-17T23:38:06.530380+00:00", "meta": {"OBJECT_NAME": "INTELSAT 11 (IS-11)", "OBJECT_ID": "2007-044B", "EPOCH": "2025-12-17T12:22:10.021728", "MEAN_MOTION": 0.99051063, "ECCENTRICITY": 0.00085996, "INCLINATION": 3.0921, "RA_OF_ASC_NODE": 80.9241, "ARG_OF_PERICENTER": 167.743, "MEAN_ANOMALY": 227.9301, "EPHEMERIS_TYPE": 0, "CLASSIFICATION_TYPE": "U", "NORAD_CAT_ID": 32253, "ELEMENT_SET_NO": 999, "REV_AT_EPOCH": 6665, "BSTAR": 0, "MEAN_MOTION_DOT": 1.6e-07, "MEAN_MOTION_DDOT": 0}, "tle": {"line1": "1 32253U 07044B   25351.51539377  .00000016  00000+0  00000+0 0  9991", "line2": "2 32253   3.0921  80.9241 0008599 167.7430 227.9301  0.99051063 66655"}}, "geometry": {"type": "Point", "coordinates": [-75.997120384482, -1.2385341559153977]}}, {"type": "Feature", "properties": {"norad_id": 32388, "name": "HORIZONS-2", "group": "intelsat", "lat": -2.0555070666879, "lon": 7.6490769263577265, "alt_km": 35787.20775967756, "timestamp": "2025-12-17T23:38:06.530391+00:00", "meta": {"OBJECT_NAME": "HORIZONS-2", "OBJECT_ID": "2007-063B", "EPOCH": "2025-12-17T12:58:32.058912", "MEAN_MOTION": 1.00272838, "ECCENTRICITY": 0.00045713, "INCLINATION": 2.1335, "RA_OF_ASC_NODE": 82.912, "ARG_OF_PERICENTER": 191.5368, "MEAN_ANOMALY": 292.8131, "EPHEMERIS_TYPE": 0, "CLASSIFICATION_TYPE": "U", "NORAD_CAT_ID": 32388, "ELEMENT_SET_NO": 999, "REV_AT_EPOCH": 6599, "BSTAR": 0, "MEAN_MOTION_DOT": -2.3e-06, "MEAN_MOTION_DDOT": 0}, "tle": {"line1": "1 32388U 07063B   25351.54064883 -.00000230  00000+0  00000+0 0  9998", "line2": "2 32388   2.1335  82.9120 0004571 191.5368 292.8131  1.00272838 65998"}}, "geometry": {"type": "Point", "coordinates": [7.6490769263577265, -2.0555070666879]}}, {"type": "Feature", "properties": {"norad_id": 32729, "name": "DIRECTV 11", "group": "intelsat", "lat": 0.0043220963318917945, "lon": -17.816103051374874, "alt_km": 35789.07920965677, "timestamp": "2025-12-17T23:38:06.530403+00:00", "meta": {"OBJECT_NAME": "DIRECTV 11", "OBJECT_ID": "2008-013A", "EPOCH": "2025-12-17T12:01:21.617760", "MEAN_MOTION": 1.00270372, "ECCENTRICITY": 6.175e-05, "INCLINATION": 0.0324, "RA_OF_ASC_NODE": 204.9349, "ARG_OF_PERICENTER": 317.5061, "MEAN_ANOMALY": 5.0932, "EPHEMERIS_TYPE": 0, "CLASSIFICATION_TYPE": "U", "NORAD_CAT_ID": 32729, "ELEMENT_SET_NO": 999, "REV_AT_EPOCH": 4377, "BSTAR": 0, "MEAN_MOTION_DOT": -1.01e-06, "MEAN_MOTION_DDOT": 0}, "tle": {"line1": "1 32729U 08013A   25351.50094465 -.00000101  00000+0  00000+0 0  9995", "line2": "2 32729   0.0324 204.9349 0000617 317.5061   5.0932  1.00270372 43774"}}, "geometry": {"type": "Point", "coordinates": [-17.816103051374874, 0.0043220963318917945]}}, {"type": "Feature", "properties": {"norad_id": 32951, "name": "GALAXY 18 (G-18)", "group": "intelsat", "lat": -0.0021412608304154554, "lon": -41.60519962595734, "alt_km": 35777.255448885815, "timestamp": "2025-12-17T23:38:06.530414+00:00", "meta": {"OBJECT_NAME": "GALAXY 18 (G-18)", "OBJECT_ID": "2008-024A", "EPOCH": "2025-12-17T12:44:25.909152", "MEAN_MOTION": 1.00272987, "ECCENTRICITY": 0.00028458, "INCLINATION": 0.0048, "RA_OF_ASC_NODE": 78.269, "ARG_OF_PERICENTER": 194.822, "MEAN_ANOMALY": 241.4236, "EPHEMERIS_TYPE": 0, "CLASSIFICATION_TYPE": "U", "NORAD_CAT_ID": 32951, "ELEMENT_SET_NO": 999, "REV_AT_EPOCH": 4403, "BSTAR": 0, "MEAN_MOTION_DOT": 5e-07, "MEAN_MOTION_DDOT": 0}, "tle": {"line1": "1 32951U 08024A   25351.53085543  .00000050  00000+0  00000+0 0  9996", "line2": "2 32951   0.0048  78.2690 0002845 194.8220 241.4236  1.00272987 44030"}}, "geometry": {"type": "Point", "coordinates": [-41.60519962595734, -0.0021412608304154554]}}]}